STARLINK-35999          
1 66951U 25286AC  26005.05446391  .00072582  00000+0  12994-2 0  9995
2 66951  53.1598 296.1716 0000988 106.3286 253.7832 15.49344051  5644
STARLINK-36122          
1 66952U 25286AD  26005.25002315 -.01982608  00000+0 -47520-1 0  9996
2 66952  53.1591 295.2644 0001099  96.3645 261.3382 15.44276019  5760
HULIANWANG DIGUI-114    
1 66953U 25287A   26004.67149378  .00000013  00000+0 -49532-5 0  9992
2 66953  86.5074 337.8507 0001828  80.1895 279.9463 13.54524820  3652
HULIANWANG DIGUI-115    
1 66954U 25287B   26004.37194255  .00000012  00000+0 -50452-5 0  9996
2 66954  86.4952 337.9680 0001648  70.0444 290.0885 13.54779036  3617
HULIANWANG DIGUI-116    
1 66955U 25287C   26004.36733506  .00000161  00000+0  21174-3 0  9995
2 66955  86.4941 337.9296 0007815  77.8224 282.3803 13.54758532  3614
HULIANWANG DIGUI-117    
1 66956U 25287D   26004.65841115  .00000016  00000+0  71719-6 0  9996
2 66956  86.4949 337.8692 0001546 128.3263 231.8028 13.54919725  3657
HULIANWANG DIGUI-118    
1 66957U 25287E   26004.65408260  .00000163  00000+0  21401-3 0  9990
2 66957  86.4980 337.8547 0001403 144.7624 215.3620 13.55071426  3650
CZ-6A R/B               
1 66958U 25287F   26005.30279188  .00000139  00000+0  85963-4 0  9996
2 66958  86.5076 337.1438 0106351  31.1776 329.5649 13.94924287  3828
STARLINK-35887          
1 66959U 25288A   26005.16955169  .00057436  00000+0  13709-2 0  9991
2 66959  43.0005  27.3120 0001404 265.8051  94.2645 15.40721308  5512
STARLINK-35879          
1 66960U 25288B   26005.25002315  .00038148  00000+0  91745-3 0  9995
2 66960  43.0001  26.4288 0001143 267.7482 353.4138 15.40649590  5603
STARLINK-35761          
1 66961U 25288C   26005.25002315  .00029088  00000+0  70146-3 0  9991
2 66961  43.0003  26.6398 0001068 238.5066 295.5159 15.40677373  5609
STARLINK-35874          
1 66962U 25288D   26005.32436494  .00164903  00000+0  27446-2 0  9999
2 66962  43.0010  25.8853 0001453 241.5832 118.4882 15.50715077  5542
