CCSDS_OMM_VERS = 2.0
CREATION_DATE  = 
ORIGINATOR     = 

OBJECT_NAME    = STARLINK-35999
OBJECT_ID      = 2025-286AC
CENTER_NAME    = EARTH
REF_FRAME      = TEME
TIME_SYSTEM    = UTC
MEAN_ELEMENT_THEORY = SGP/SGP4

EPOCH          = 2026-01-05T01:18:25.681824
MEAN_MOTION    = 15.49344051
ECCENTRICITY   = .0000988
INCLINATION    = 53.1598
RA_OF_ASC_NODE = 296.1716
ARG_OF_PERICENTER = 106.3286
MEAN_ANOMALY   = 253.7832

EPHEMERIS_TYPE = 0
CLASSIFICATION_TYPE = U
NORAD_CAT_ID   = 66951
ELEMENT_SET_NO = 999
REV_AT_EPOCH   = 564
BSTAR          = .12993783E-2
MEAN_MOTION_DOT = .72582E-3
MEAN_MOTION_DDOT = 0

CCSDS_OMM_VERS = 2.0
CREATION_DATE  = 
ORIGINATOR     = 

OBJECT_NAME    = STARLINK-36122
OBJECT_ID      = 2025-286AD
CENTER_NAME    = EARTH
REF_FRAME      = TEME
TIME_SYSTEM    = UTC
MEAN_ELEMENT_THEORY = SGP/SGP4

EPOCH          = 2026-01-05T06:00:02.000160
MEAN_MOTION    = 15.44276019
ECCENTRICITY   = .00010991
INCLINATION    = 53.1591
RA_OF_ASC_NODE = 295.2644
ARG_OF_PERICENTER = 96.3645
MEAN_ANOMALY   = 261.3382

EPHEMERIS_TYPE = 0
CLASSIFICATION_TYPE = U
NORAD_CAT_ID   = 66952
ELEMENT_SET_NO = 999
REV_AT_EPOCH   = 576
BSTAR          = -.47519542E-1
MEAN_MOTION_DOT = -.1982608E-1
MEAN_MOTION_DDOT = 0

CCSDS_OMM_VERS = 2.0
CREATION_DATE  = 
ORIGINATOR     = 

OBJECT_NAME    = HULIANWANG DIGUI-114
OBJECT_ID      = 2025-287A
CENTER_NAME    = EARTH
REF_FRAME      = TEME
TIME_SYSTEM    = UTC
MEAN_ELEMENT_THEORY = SGP/SGP4

EPOCH          = 2026-01-04T16:06:57.062592
MEAN_MOTION    = 13.54524820
ECCENTRICITY   = .00018287
INCLINATION    = 86.5074
RA_OF_ASC_NODE = 337.8507
ARG_OF_PERICENTER = 80.1895
MEAN_ANOMALY   = 279.9463

EPHEMERIS_TYPE = 0
CLASSIFICATION_TYPE = U
NORAD_CAT_ID   = 66953
ELEMENT_SET_NO = 999
REV_AT_EPOCH   = 365
BSTAR          = -.495324E-5
MEAN_MOTION_DOT = .13E-6
MEAN_MOTION_DDOT = 0

CCSDS_OMM_VERS = 2.0
CREATION_DATE  = 
ORIGINATOR     = 

OBJECT_NAME    = HULIANWANG DIGUI-115
OBJECT_ID      = 2025-287B
CENTER_NAME    = EARTH
REF_FRAME      = TEME
TIME_SYSTEM    = UTC
MEAN_ELEMENT_THEORY = SGP/SGP4

EPOCH          = 2026-01-04T08:55:35.836320
MEAN_MOTION    = 13.54779036
ECCENTRICITY   = .00016484
INCLINATION    = 86.4952
RA_OF_ASC_NODE = 337.9680
ARG_OF_PERICENTER = 70.0444
MEAN_ANOMALY   = 290.0885

EPHEMERIS_TYPE = 0
CLASSIFICATION_TYPE = U
NORAD_CAT_ID   = 66954
ELEMENT_SET_NO = 999
REV_AT_EPOCH   = 361
BSTAR          = -.5045239E-5
MEAN_MOTION_DOT = .12E-6
MEAN_MOTION_DDOT = 0

CCSDS_OMM_VERS = 2.0
CREATION_DATE  = 
ORIGINATOR     = 

OBJECT_NAME    = HULIANWANG DIGUI-116
OBJECT_ID      = 2025-287C
CENTER_NAME    = EARTH
REF_FRAME      = TEME
TIME_SYSTEM    = UTC
MEAN_ELEMENT_THEORY = SGP/SGP4

EPOCH          = 2026-01-04T08:48:57.749184
MEAN_MOTION    = 13.54758532
ECCENTRICITY   = .00078152
INCLINATION    = 86.4941
RA_OF_ASC_NODE = 337.9296
ARG_OF_PERICENTER = 77.8224
MEAN_ANOMALY   = 282.3803

EPHEMERIS_TYPE = 0
CLASSIFICATION_TYPE = U
NORAD_CAT_ID   = 66955
ELEMENT_SET_NO = 999
REV_AT_EPOCH   = 361
BSTAR          = .2117443E-3
MEAN_MOTION_DOT = .161E-5
MEAN_MOTION_DDOT = 0

CCSDS_OMM_VERS = 2.0
CREATION_DATE  = 
ORIGINATOR     = 

OBJECT_NAME    = HULIANWANG DIGUI-117
OBJECT_ID      = 2025-287D
CENTER_NAME    = EARTH
REF_FRAME      = TEME
TIME_SYSTEM    = UTC
MEAN_ELEMENT_THEORY = SGP/SGP4

EPOCH          = 2026-01-04T15:48:06.723360
MEAN_MOTION    = 13.54919725
ECCENTRICITY   = .00015467
INCLINATION    = 86.4949
RA_OF_ASC_NODE = 337.8692
ARG_OF_PERICENTER = 128.3263
MEAN_ANOMALY   = 231.8028

EPHEMERIS_TYPE = 0
CLASSIFICATION_TYPE = U
NORAD_CAT_ID   = 66956
ELEMENT_SET_NO = 999
REV_AT_EPOCH   = 365
BSTAR          = .71719E-6
MEAN_MOTION_DOT = .16E-6
MEAN_MOTION_DDOT = 0

CCSDS_OMM_VERS = 2.0
CREATION_DATE  = 
ORIGINATOR     = 

OBJECT_NAME    = HULIANWANG DIGUI-118
OBJECT_ID      = 2025-287E
CENTER_NAME    = EARTH
REF_FRAME      = TEME
TIME_SYSTEM    = UTC
MEAN_ELEMENT_THEORY = SGP/SGP4

EPOCH          = 2026-01-04T15:41:52.736640
MEAN_MOTION    = 13.55071426
ECCENTRICITY   = .00014037
INCLINATION    = 86.4980
RA_OF_ASC_NODE = 337.8547
ARG_OF_PERICENTER = 144.7624
MEAN_ANOMALY   = 215.3620

EPHEMERIS_TYPE = 0
CLASSIFICATION_TYPE = U
NORAD_CAT_ID   = 66957
ELEMENT_SET_NO = 999
REV_AT_EPOCH   = 365
BSTAR          = .21400996E-3
MEAN_MOTION_DOT = .163E-5
MEAN_MOTION_DDOT = 0

CCSDS_OMM_VERS = 2.0
CREATION_DATE  = 
ORIGINATOR     = 

OBJECT_NAME    = CZ-6A R/B
OBJECT_ID      = 2025-287F
CENTER_NAME    = EARTH
REF_FRAME      = TEME
TIME_SYSTEM    = UTC
MEAN_ELEMENT_THEORY = SGP/SGP4

EPOCH          = 2026-01-05T07:16:01.218432
MEAN_MOTION    = 13.94924287
ECCENTRICITY   = .01063517
INCLINATION    = 86.5076
RA_OF_ASC_NODE = 337.1438
ARG_OF_PERICENTER = 31.1776
MEAN_ANOMALY   = 329.5649

EPHEMERIS_TYPE = 0
CLASSIFICATION_TYPE = U
NORAD_CAT_ID   = 66958
ELEMENT_SET_NO = 999
REV_AT_EPOCH   = 382
BSTAR          = .85963451E-4
MEAN_MOTION_DOT = .139E-5
MEAN_MOTION_DDOT = 0

CCSDS_OMM_VERS = 2.0
CREATION_DATE  = 
ORIGINATOR     = 

OBJECT_NAME    = STARLINK-35887
OBJECT_ID      = 2025-288A
CENTER_NAME    = EARTH
REF_FRAME      = TEME
TIME_SYSTEM    = UTC
MEAN_ELEMENT_THEORY = SGP/SGP4

EPOCH          = 2026-01-05T04:04:09.266016
MEAN_MOTION    = 15.40721308
ECCENTRICITY   = .00014047
INCLINATION    = 43.0005
RA_OF_ASC_NODE = 27.3120
ARG_OF_PERICENTER = 265.8051
MEAN_ANOMALY   = 94.2645

EPHEMERIS_TYPE = 0
CLASSIFICATION_TYPE = U
NORAD_CAT_ID   = 66959
ELEMENT_SET_NO = 999
REV_AT_EPOCH   = 551
BSTAR          = .13709267E-2
MEAN_MOTION_DOT = .57436E-3
MEAN_MOTION_DDOT = 0

CCSDS_OMM_VERS = 2.0
CREATION_DATE  = 
ORIGINATOR     = 

OBJECT_NAME    = STARLINK-35879
OBJECT_ID      = 2025-288B
CENTER_NAME    = EARTH
REF_FRAME      = TEME
TIME_SYSTEM    = UTC
MEAN_ELEMENT_THEORY = SGP/SGP4

EPOCH          = 2026-01-05T06:00:02.000160
MEAN_MOTION    = 15.40649590
ECCENTRICITY   = .00011435
INCLINATION    = 43.0001
RA_OF_ASC_NODE = 26.4288
ARG_OF_PERICENTER = 267.7482
MEAN_ANOMALY   = 353.4138

EPHEMERIS_TYPE = 0
CLASSIFICATION_TYPE = U
NORAD_CAT_ID   = 66960
ELEMENT_SET_NO = 999
REV_AT_EPOCH   = 560
BSTAR          = .91745209E-3
MEAN_MOTION_DOT = .38148E-3
MEAN_MOTION_DDOT = 0

CCSDS_OMM_VERS = 2.0
CREATION_DATE  = 
ORIGINATOR     = 

OBJECT_NAME    = STARLINK-35761
OBJECT_ID      = 2025-288C
CENTER_NAME    = EARTH
REF_FRAME      = TEME
TIME_SYSTEM    = UTC
MEAN_ELEMENT_THEORY = SGP/SGP4

EPOCH          = 2026-01-05T06:00:02.000160
MEAN_MOTION    = 15.40677373
ECCENTRICITY   = .00010685
INCLINATION    = 43.0003
RA_OF_ASC_NODE = 26.6398
ARG_OF_PERICENTER = 238.5066
MEAN_ANOMALY   = 295.5159

EPHEMERIS_TYPE = 0
CLASSIFICATION_TYPE = U
NORAD_CAT_ID   = 66961
ELEMENT_SET_NO = 999
REV_AT_EPOCH   = 560
BSTAR          = .70146131E-3
MEAN_MOTION_DOT = .29088E-3
MEAN_MOTION_DDOT = 0

CCSDS_OMM_VERS = 2.0
CREATION_DATE  = 
ORIGINATOR     = 

OBJECT_NAME    = STARLINK-35874
OBJECT_ID      = 2025-288D
CENTER_NAME    = EARTH
REF_FRAME      = TEME
TIME_SYSTEM    = UTC
MEAN_ELEMENT_THEORY = SGP/SGP4

EPOCH          = 2026-01-05T07:47:05.130816
MEAN_MOTION    = 15.50715077
ECCENTRICITY   = .00014534
INCLINATION    = 43.0010
RA_OF_ASC_NODE = 25.8853
ARG_OF_PERICENTER = 241.5832
MEAN_ANOMALY   = 118.4882

EPHEMERIS_TYPE = 0
CLASSIFICATION_TYPE = U
NORAD_CAT_ID   = 66962
ELEMENT_SET_NO = 999
REV_AT_EPOCH   = 554
BSTAR          = .274456E-2
MEAN_MOTION_DOT = .164903E-2
MEAN_MOTION_DDOT = 0

